LANDSAT 9               
1 49260U 21088A   24212.43265346  .00000824  00000+0  19307-3 0  9990
2 49260  98.2298 281.4892 0001421  90.2760 269.8601 14.57100055150980
